{"type": "FeatureCollection", "features": [{"type": "Feature", "properties": {"pipe_id": "493983f6-25ae-4a01-831b-6eb2d9731557", "material": "PVC", "year": 2003, "status": "No recent data", "data_mode": "Research Data"}, "geometry": {"type": "LineString", "coordinates": [[-114.1993839, 51.0655459], [-114.1994186, 51.0655459]]}}, {"type": "Feature", "properties": {"pipe_id": "e7994366-d91d-44eb-84a9-0f83b96ede7a", "material": "PVC", "year": 2001, "status": "No recent data", "data_mode": "Research Data"}, "geometry": {"type": "LineString", "coordinates": [[-114.1986766, 51.0632836], [-114.1993828, 51.0632828]]}}, {"type": "Feature", "properties": {"pipe_id": "1823b7ea-dbb8-4b08-b5f4-07fec8a0b180", "material": "PVC", "year": 2003, "status": "No recent data", "data_mode": "Research Data"}, "geometry": {"type": "LineString", "coordinates": [[-114.1993828, 51.0632828], [-114.1994186, 51.0632828]]}}, {"type": "Feature", "properties": {"pipe_id": "fd27ce5b-bcd1-4bc6-8f5e-af58a45da7b2", "material": "PVC", "year": 2000, "status": "No recent data", "data_mode": "Research Data"}, "geometry": {"type": "LineString", "coordinates": [[-114.199337, 51.0669684], [-114.1993442, 51.066869]]}}, {"type": "Feature", "properties": {"pipe_id": "b6712f69-25be-4916-9250-b7df862306d7", "material": "PVC", "year": 2003, "status": "No recent data", "data_mode": "Research Data"}, "geometry": {"type": "LineString", "coordinates": [[-114.1993442, 51.066869], [-114.1993458, 51.0668473], [-114.1992798, 51.0667026], [-114.1992937, 51.066462], [-114.1994186, 51.0655503], [-114.1994186, 51.0655459]]}}, {"type": "Feature", "properties": {"pipe_id": "e4fe4347-b9e1-42f3-89f7-1c7408af0b97", "material": "PVC", "year": 2001, "status": "No recent data", "data_mode": "Research Data"}, "geometry": {"type": "LineString", "coordinates": [[-114.1994178, 51.0601979], [-114.1994178, 51.0602325]]}}, {"type": "Feature", "properties": {"pipe_id": "68ba98e0-ce9d-47cc-879c-476ce05e985f", "material": "PVC", "year": 2001, "status": "No recent data", "data_mode": "Research Data"}, "geometry": {"type": "LineString", "coordinates": [[-114.1994178, 51.0602325], [-114.1994175, 51.0606409], [-114.1994175, 51.0606409]]}}, {"type": "Feature", "properties": {"pipe_id": "2c26c066-dc45-44d5-8818-6e47862ebd29", "material": "PVC", "year": 2003, "status": "No recent data", "data_mode": "Research Data"}, "geometry": {"type": "LineString", "coordinates": [[-114.1994177, 51.0610847], [-114.199418, 51.0619603]]}}, {"type": "Feature", "properties": {"pipe_id": "e5c8a51f-ff66-45db-8658-9adc7a662883", "material": "PVC", "year": 2004, "status": "No recent data", "data_mode": "Research Data"}, "geometry": {"type": "LineString", "coordinates": [[-114.1984569, 51.0610859], [-114.1971221, 51.0610875]]}}, {"type": "Feature", "properties": {"pipe_id": "008324c1-c112-4927-a4e8-50fd6c551e4b", "material": "PVC", "year": 2002, "status": "No recent data", "data_mode": "Research Data"}, "geometry": {"type": "LineString", "coordinates": [[-114.0312213, 50.8789447], [-114.0312281, 50.8779118], [-114.0312283, 50.8778697]]}}, {"type": "Feature", "properties": {"pipe_id": "f72035b5-5723-4390-8a08-be04095eb3aa", "material": "PVC", "year": 2003, "status": "No recent data", "data_mode": "Research Data"}, "geometry": {"type": "LineString", "coordinates": [[-114.0312283, 50.8778697], [-114.031229, 50.8777075]]}}, {"type": "Feature", "properties": {"pipe_id": "ab1e0d32-0401-43fe-bb45-f19eee94ee1d", "material": "PVC", "year": 2003, "status": "No recent data", "data_mode": "Research Data"}, "geometry": {"type": "LineString", "coordinates": [[-114.0363319, 50.879849], [-114.0365927, 50.8798924], [-114.0366985, 50.8798842], [-114.0368037, 50.8798736], [-114.0369083, 50.8798606], [-114.0370121, 50.8798451], [-114.0371149, 50.8798273], [-114.0372166, 50.8798072], [-114.037317, 50.8797847], [-114.0374162, 50.8797599], [-114.0374588, 50.8797484], [-114.0374917, 50.8797396]]}}, {"type": "Feature", "properties": {"pipe_id": "1ea03067-2952-4514-9791-73d4ca4068a9", "material": "PVC", "year": 2007, "status": "No recent data", "data_mode": "Research Data"}, "geometry": {"type": "LineString", "coordinates": [[-114.0357707, 50.8758605], [-114.0363917, 50.8768009], [-114.0363917, 50.8768009]]}}, {"type": "Feature", "properties": {"pipe_id": "5510673a-5ffd-44bf-af36-3e92be5fa5a5", "material": "PVC", "year": 2003, "status": "No recent data", "data_mode": "Research Data"}, "geometry": {"type": "LineString", "coordinates": [[-114.2232195, 51.0175664], [-114.2230076, 51.0174406], [-114.2226573, 51.0172397], [-114.2225802, 51.0171931], [-114.2225042, 51.0171456], [-114.2224295, 51.0170974], [-114.2223559, 51.0170485], [-114.2222836, 51.0169988], [-114.2222126, 51.0169484], [-114.2221428, 51.0168974], [-114.2220743, 51.0168456]]}}, {"type": "Feature", "properties": {"pipe_id": "dbfc9667-43dd-43d7-b69a-b75edeb3cef9", "material": "PVC", "year": 2002, "status": "No recent data", "data_mode": "Research Data"}, "geometry": {"type": "LineString", "coordinates": [[-114.2220743, 51.0168456], [-114.2220024, 51.0167904], [-114.2219378, 51.0167367], [-114.2218763, 51.0166815], [-114.2218181, 51.0166249], [-114.2217633, 51.0165671], [-114.2217078, 51.0165094], [-114.2216479, 51.0164536], [-114.2215837, 51.0163997], [-114.2215196, 51.016351], [-114.2214474, 51.0163013], [-114.2213715, 51.0162539], [-114.2212918, 51.0162089], [-114.2212088, 51.0161665], [-114.2211225, 51.0161267], [-114.2210332, 51.0160897], [-114.220941, 51.0160555], [-114.2208463, 51.0160242], [-114.2207493, 51.015996], [-114.2206501, 51.0159708], [-114.2205491, 51.0159488], [-114.2204974, 51.0159389], [-114.2203941, 51.0159217], [-114.2202801, 51.0159066]]}}, {"type": "Feature", "properties": {"pipe_id": "07eb113c-d526-4791-b556-a1a96e3ed378", "material": "PVC", "year": 2003, "status": "No recent data", "data_mode": "Research Data"}, "geometry": {"type": "LineString", "coordinates": [[-114.2232195, 51.0175664], [-114.2233933, 51.0174295]]}}, {"type": "Feature", "properties": {"pipe_id": "ef00485b-8344-4653-a5f1-7d35dc04fff1", "material": "PVC", "year": 2003, "status": "No recent data", "data_mode": "Research Data"}, "geometry": {"type": "LineString", "coordinates": [[-114.2233933, 51.0174295], [-114.2236384, 51.0172362]]}}, {"type": "Feature", "properties": {"pipe_id": "3ece1b55-d958-4b1b-bd39-a271935de082", "material": "PVC", "year": 2003, "status": "No recent data", "data_mode": "Research Data"}, "geometry": {"type": "LineString", "coordinates": [[-114.2241345, 51.0181101], [-114.2232195, 51.0175664]]}}, {"type": "Feature", "properties": {"pipe_id": "0b7a13dd-9e0b-4f9a-bc66-528344a7b3df", "material": "PVC", "year": 2003, "status": "No recent data", "data_mode": "Research Data"}, "geometry": {"type": "LineString", "coordinates": [[-114.2253137, 51.0174287], [-114.2249823, 51.0174283], [-114.2249555, 51.017498], [-114.2249148, 51.0175603], [-114.2248598, 51.017618], [-114.2247918, 51.01767], [-114.2243982, 51.0179335]]}}, {"type": "Feature", "properties": {"pipe_id": "450d36e8-a104-4a9c-b8c2-3ce1813e0bd2", "material": "PVC", "year": 2003, "status": "No recent data", "data_mode": "Research Data"}, "geometry": {"type": "LineString", "coordinates": [[-114.2241345, 51.0181101], [-114.2245931, 51.0183826], [-114.2246505, 51.0184157], [-114.2247252, 51.0184558], [-114.224801, 51.0184934], [-114.2248791, 51.0185291], [-114.2249665, 51.0185658], [-114.2250373, 51.0185932], [-114.2251305, 51.0186263], [-114.2252258, 51.0186568], [-114.2253533, 51.0186927], [-114.2254358, 51.0187124], [-114.225537, 51.0187341], [-114.2256394, 51.0187534]]}}, {"type": "Feature", "properties": {"pipe_id": "1720e861-86b0-4cfc-a842-d91707354715", "material": "PVC", "year": 2003, "status": "No recent data", "data_mode": "Research Data"}, "geometry": {"type": "LineString", "coordinates": [[-114.2256124, 51.0189739], [-114.225676, 51.0188308]]}}, {"type": "Feature", "properties": {"pipe_id": "abc6f1be-4d6d-4684-9978-16844028bcab", "material": "PVC", "year": 2003, "status": "No recent data", "data_mode": "Research Data"}, "geometry": {"type": "LineString", "coordinates": [[-114.225676, 51.0188308], [-114.2257054, 51.0187645]]}}, {"type": "Feature", "properties": {"pipe_id": "06394940-a85a-4dc1-b694-1a4dbb525699", "material": "PVC", "year": 2003, "status": "No recent data", "data_mode": "Research Data"}, "geometry": {"type": "LineString", "coordinates": [[-114.2257054, 51.0187645], [-114.2258232, 51.0187817], [-114.2259282, 51.0187943], [-114.2260342, 51.0188032], [-114.2261406, 51.0188093], [-114.226185, 51.018811], [-114.2265858, 51.0188238], [-114.2266925, 51.018828], [-114.2267991, 51.0188336], [-114.2268788, 51.0188388]]}}, {"type": "Feature", "properties": {"pipe_id": "9d4ce4f3-0638-4be2-8b47-ae8ef866caaa", "material": "PVC", "year": 2003, "status": "No recent data", "data_mode": "Research Data"}, "geometry": {"type": "LineString", "coordinates": [[-113.9942403, 50.8926452], [-113.9942894, 50.8926367]]}}, {"type": "Feature", "properties": {"pipe_id": "79457fd3-505f-4994-9e53-00a64e94ab0c", "material": "PVC", "year": 2003, "status": "No recent data", "data_mode": "Research Data"}, "geometry": {"type": "LineString", "coordinates": [[-113.9942894, 50.8926367], [-113.9949469, 50.8925223]]}}, {"type": "Feature", "properties": {"pipe_id": "389d2ac2-55ba-4f48-b1ad-378108235c95", "material": "PVC", "year": 2003, "status": "No recent data", "data_mode": "Research Data"}, "geometry": {"type": "LineString", "coordinates": [[-113.9942403, 50.8926452], [-113.9937207, 50.8927356]]}}, {"type": "Feature", "properties": {"pipe_id": "e6540d1e-f0e7-4610-ba3b-48e89e54cfae", "material": "PVC", "year": 2004, "status": "No recent data", "data_mode": "Research Data"}, "geometry": {"type": "LineString", "coordinates": [[-113.9941503, 50.8919538], [-113.994572, 50.8918804], [-113.9949798, 50.8915709], [-113.9950202, 50.8915638]]}}, {"type": "Feature", "properties": {"pipe_id": "bcec6f5e-fc66-4261-b6a5-f54fb14388ff", "material": "PVC", "year": 2003, "status": "No recent data", "data_mode": "Research Data"}, "geometry": {"type": "LineString", "coordinates": [[-113.9923012, 50.8937334], [-113.9923749, 50.8937206], [-113.992458, 50.8937062], [-113.9937234, 50.893486], [-113.9938259, 50.8934674], [-113.9939276, 50.8934471], [-113.9939712, 50.8934379], [-113.9940029, 50.8934027], [-113.9939931, 50.8933743], [-113.9939686, 50.8933087], [-113.9939415, 50.8932434], [-113.9937207, 50.8927356]]}}, {"type": "Feature", "properties": {"pipe_id": "b2e19b50-aeae-4898-8a00-b01a67a111bf", "material": "PVC", "year": 2003, "status": "No recent data", "data_mode": "Research Data"}, "geometry": {"type": "LineString", "coordinates": [[-113.9938327, 50.8920313], [-113.9942329, 50.892628], [-113.9942403, 50.8926452]]}}, {"type": "Feature", "properties": {"pipe_id": "b8ec3481-972d-49ed-a146-c42f62baefbe", "material": "PVC", "year": 2003, "status": "No recent data", "data_mode": "Research Data"}, "geometry": {"type": "LineString", "coordinates": [[-113.996834, 50.8927982], [-113.9968808, 50.8928921], [-113.9968527, 50.8929284], [-113.9967925, 50.8929444], [-113.9966924, 50.8929676], [-113.9965905, 50.8929873], [-113.9955514, 50.893168], [-113.995448, 50.8931845], [-113.9953436, 50.893198], [-113.9953035, 50.8932024], [-113.9952478, 50.8931825], [-113.9952333, 50.8931584], [-113.9951983, 50.8930947], [-113.9951678, 50.8930301], [-113.9949469, 50.8925223]]}}, {"type": "Feature", "properties": {"pipe_id": "71f279c4-c845-4a7c-899b-30b594cdb3bb", "material": "PVC", "year": 2003, "status": "No recent data", "data_mode": "Research Data"}, "geometry": {"type": "LineString", "coordinates": [[-113.9370378, 51.1145528], [-113.9370391, 51.1149909]]}}, {"type": "Feature", "properties": {"pipe_id": "b1fdf05b-9e6a-4901-896d-2a09477b91f9", "material": "PVC", "year": 2001, "status": "No recent data", "data_mode": "Research Data"}, "geometry": {"type": "LineString", "coordinates": [[-113.9551848, 50.9505648], [-113.9519514, 50.9505678]]}}, {"type": "Feature", "properties": {"pipe_id": "32f479c5-316c-448b-8d8f-ae491d2fad16", "material": "PVC", "year": 2001, "status": "No recent data", "data_mode": "Research Data"}, "geometry": {"type": "LineString", "coordinates": [[-113.9516328, 50.9538593], [-113.9517364, 50.9536763], [-113.951881, 50.9534207], [-113.9519128, 50.9533563], [-113.9519363, 50.9532906], [-113.9519511, 50.9532238], [-113.9519576, 50.9531403], [-113.9519514, 50.9505678]]}}, {"type": "Feature", "properties": {"pipe_id": "2ac1614d-e458-41b8-909a-c6f4bc34305b", "material": "PVC", "year": 2001, "status": "No recent data", "data_mode": "Research Data"}, "geometry": {"type": "LineString", "coordinates": [[-113.935154, 50.9518215], [-113.9307325, 50.9518309], [-113.9307335, 50.9505559]]}}, {"type": "Feature", "properties": {"pipe_id": "1b891656-091d-4ccd-b563-7a739f364e44", "material": "PVC", "year": 2001, "status": "No recent data", "data_mode": "Research Data"}, "geometry": {"type": "LineString", "coordinates": [[-113.935154, 50.9518215], [-113.9351307, 50.9522606], [-113.935129, 50.9534348]]}}, {"type": "Feature", "properties": {"pipe_id": "22aff5d4-a1bc-4aff-bb29-c035a7ebcc44", "material": "PVC", "year": 1995, "status": "No recent data", "data_mode": "Research Data"}, "geometry": {"type": "LineString", "coordinates": [[-114.2136936, 51.128481], [-114.2138119, 51.1285377], [-114.2138459, 51.1285541]]}}, {"type": "Feature", "properties": {"pipe_id": "a2a8a398-a6cd-4dd6-82db-b403afe01f10", "material": "PVC", "year": 1996, "status": "No recent data", "data_mode": "Research Data"}, "geometry": {"type": "LineString", "coordinates": [[-114.2138459, 51.1285541], [-114.2139334, 51.128593], [-114.2140204, 51.1286324], [-114.214107, 51.1286721], [-114.214193, 51.1287123], [-114.2142786, 51.1287528], [-114.2143637, 51.1287938], [-114.2144483, 51.1288352], [-114.2145324, 51.1288769], [-114.2146161, 51.1289191], [-114.2146992, 51.1289616], [-114.2147818, 51.1290046], [-114.2148639, 51.1290479], [-114.2149455, 51.1290916], [-114.2150265, 51.1291357], [-114.2151071, 51.1291802], [-114.2151871, 51.129225], [-114.2152666, 51.1292702], [-114.2153455, 51.1293158], [-114.2154239, 51.1293618], [-114.2155017, 51.1294081], [-114.215579, 51.1294548], [-114.2156557, 51.1295019], [-114.2157319, 51.1295493], [-114.2158075, 51.1295971], [-114.2158826, 51.1296452], [-114.2159413, 51.1296834], [-114.2160139, 51.129733], [-114.216086, 51.1297828], [-114.2161576, 51.129833], [-114.2162287, 51.1298835], [-114.2162992, 51.1299342], [-114.2163693, 51.1299852], [-114.2164389, 51.1300365], [-114.2165079, 51.1300881], [-114.2165764, 51.1301399], [-114.2166444, 51.130192], [-114.2167119, 51.1302444], [-114.2167788, 51.130297], [-114.2168452, 51.1303499], [-114.2168851, 51.1303821]]}}, {"type": "Feature", "properties": {"pipe_id": "a2e7926d-853c-4118-a732-b103f11ee817", "material": "PVC", "year": 1996, "status": "No recent data", "data_mode": "Research Data"}, "geometry": {"type": "LineString", "coordinates": [[-114.2168851, 51.1303821], [-114.2169111, 51.1304031], [-114.2169764, 51.1304565], [-114.2170413, 51.1305102], [-114.2171055, 51.1305642], [-114.2171188, 51.1305754], [-114.2178604, 51.1312038]]}}, {"type": "Feature", "properties": {"pipe_id": "a9fa2e89-f21b-422f-bc25-ce691b8f4c93", "material": "PVC", "year": 1998, "status": "No recent data", "data_mode": "Research Data"}, "geometry": {"type": "LineString", "coordinates": [[-114.2181126, 51.1315652], [-114.2181239, 51.131603], [-114.2181358, 51.13167], [-114.2181396, 51.1317373], [-114.2181375, 51.1323877], [-114.2181372, 51.1324501], [-114.2181334, 51.1325174], [-114.2181222, 51.1325845], [-114.2181037, 51.1326509], [-114.2180781, 51.1327163], [-114.218072, 51.1327293]]}}, {"type": "Feature", "properties": {"pipe_id": "a0b9d0ed-078e-4f71-8b99-326e103d8ce0", "material": "PVC", "year": 1998, "status": "No recent data", "data_mode": "Research Data"}, "geometry": {"type": "LineString", "coordinates": [[-114.221686, 51.1277212], [-114.2216278, 51.1277988]]}}, {"type": "Feature", "properties": {"pipe_id": "e616cea5-09cd-4a7c-b031-cee58ddab2b9", "material": "PVC", "year": 2004, "status": "No recent data", "data_mode": "Research Data"}, "geometry": {"type": "LineString", "coordinates": [[-114.220603, 51.0694398], [-114.2206024, 51.0686175]]}}, {"type": "Feature", "properties": {"pipe_id": "e8083dd5-5bae-47ce-947a-a0410df7e004", "material": "PVC", "year": 2004, "status": "No recent data", "data_mode": "Research Data"}, "geometry": {"type": "LineString", "coordinates": [[-114.1351685, 51.1564101], [-114.1350527, 51.1565213], [-114.1349955, 51.1565783], [-114.1349369, 51.1566347], [-114.1348768, 51.1566906], [-114.1348167, 51.1567448], [-114.1345894, 51.1569362], [-114.1345235, 51.1569893], [-114.1344563, 51.1570419], [-114.1343879, 51.1570938], [-114.1343182, 51.157145], [-114.1342474, 51.1571956], [-114.13417, 51.1572491], [-114.1340955, 51.1572976], [-114.1340174, 51.1573438], [-114.1339361, 51.1573877], [-114.1338547, 51.1574279]]}}, {"type": "Feature", "properties": {"pipe_id": "776b3d9b-23ed-4eff-8eae-d3eb3198867f", "material": "PVC", "year": 2004, "status": "No recent data", "data_mode": "Research Data"}, "geometry": {"type": "LineString", "coordinates": [[-114.1351685, 51.1564101], [-114.1346317, 51.1561591], [-114.134543, 51.1561213], [-114.1344496, 51.1560883], [-114.134352, 51.1560605], [-114.1342509, 51.156038], [-114.1341472, 51.156021], [-114.1340415, 51.1560097], [-114.1339347, 51.156004], [-114.1338276, 51.1560042], [-114.1337348, 51.1560089], [-114.1337074, 51.1560741], [-114.1336761, 51.1561386], [-114.133641, 51.1562023], [-114.1336022, 51.1562651], [-114.1335597, 51.156327], [-114.1335136, 51.1563879], [-114.1334639, 51.1564476], [-114.1334108, 51.1565062], [-114.1333542, 51.1565635], [-114.1332943, 51.1566194], [-114.1332311, 51.1566738], [-114.1331648, 51.1567268], [-114.1331112, 51.1567668], [-114.1330382, 51.1568161], [-114.1329598, 51.1568621], [-114.1328765, 51.1569046], [-114.1327887, 51.1569432], [-114.1326968, 51.1569779], [-114.1326012, 51.1570084], [-114.1325024, 51.1570346], [-114.132401, 51.1570564], [-114.1322974, 51.1570737], [-114.1321921, 51.1570864], [-114.1320857, 51.1570943], [-114.1319786, 51.1570976], [-114.1318714, 51.1570961], [-114.1317647, 51.1570899], [-114.1316589, 51.157079], [-114.1315546, 51.1570634], [-114.1314523, 51.1570433], [-114.1313525, 51.1570187], [-114.1312557, 51.1569897], [-114.1311624, 51.1569566], [-114.131073, 51.1569194], [-114.130988, 51.1568783], [-114.1309569, 51.1568618], [-114.130839, 51.1568811], [-114.1304776, 51.1574895], [-114.130503, 51.1575319]]}}, {"type": "Feature", "properties": {"pipe_id": "3fc2aba6-33a5-4ddc-8776-8c1e9baf50b9", "material": "CI", "year": 1958, "status": "No recent data", "data_mode": "Research Data"}, "geometry": {"type": "LineString", "coordinates": [[-114.0846312, 50.9699449], [-114.0847031, 50.9687365]]}}, {"type": "Feature", "properties": {"pipe_id": "7df31862-72e5-4c96-9dfa-65f9041603a2", "material": "CI", "year": 1958, "status": "No recent data", "data_mode": "Research Data"}, "geometry": {"type": "LineString", "coordinates": [[-114.0847051, 50.968702], [-114.0847031, 50.9687365]]}}, {"type": "Feature", "properties": {"pipe_id": "37e7727e-56b1-453c-8327-26239b7aac20", "material": "CI", "year": 1958, "status": "No recent data", "data_mode": "Research Data"}, "geometry": {"type": "LineString", "coordinates": [[-114.0853248, 50.9723088], [-114.0853584, 50.9715864]]}}, {"type": "Feature", "properties": {"pipe_id": "2e021854-d4e9-43cc-ba4f-e035bc011d40", "material": "PE", "year": 2009, "status": "No recent data", "data_mode": "Research Data"}, "geometry": {"type": "LineString", "coordinates": [[-114.0930242, 50.9706107], [-114.0932313, 50.9708416]]}}, {"type": "Feature", "properties": {"pipe_id": "df3e4d9e-231d-4e25-98f5-038f9d09bd80", "material": "PVC", "year": 1988, "status": "No recent data", "data_mode": "Research Data"}, "geometry": {"type": "LineString", "coordinates": [[-114.0887705, 50.9761881], [-114.08877, 50.9771656]]}}, {"type": "Feature", "properties": {"pipe_id": "2187ecd9-30bf-41da-a81e-e76251700cec", "material": "CI", "year": 1959, "status": "No recent data", "data_mode": "Research Data"}, "geometry": {"type": "LineString", "coordinates": [[-114.0889148, 50.9776863], [-114.088529, 50.9777896]]}}, {"type": "Feature", "properties": {"pipe_id": "a50e31b2-65b4-4632-a0ff-837b2be9967d", "material": "CI", "year": 1958, "status": "No recent data", "data_mode": "Research Data"}, "geometry": {"type": "LineString", "coordinates": [[-114.0853887, 50.9710791], [-114.0853688, 50.9713958]]}}, {"type": "Feature", "properties": {"pipe_id": "8cfb8ac3-c611-4029-b392-e3cb80580185", "material": "CI", "year": 1941, "status": "No recent data", "data_mode": "Research Data"}, "geometry": {"type": "LineString", "coordinates": [[-113.98948, 50.9674258], [-113.9923101, 50.97069]]}}, {"type": "Feature", "properties": {"pipe_id": "783998b2-ee29-4005-962a-0b28e790d7b1", "material": "YDI", "year": 1978, "status": "No recent data", "data_mode": "Research Data"}, "geometry": {"type": "LineString", "coordinates": [[-113.9940789, 50.97273], [-113.995925, 50.9720921]]}}, {"type": "Feature", "properties": {"pipe_id": "1aac25d6-17bd-404d-af9f-822a1b35e9c4", "material": "PDI", "year": 1975, "status": "No recent data", "data_mode": "Research Data"}, "geometry": {"type": "LineString", "coordinates": [[-113.98948, 50.9674258], [-113.987026, 50.9674255]]}}, {"type": "Feature", "properties": {"pipe_id": "c59c4e3c-5ab4-485c-9919-211ccaa6a4d1", "material": "PVC", "year": 1978, "status": "No recent data", "data_mode": "Research Data"}, "geometry": {"type": "LineString", "coordinates": [[-113.9900985, 50.9650111], [-113.9900988, 50.9674259]]}}, {"type": "Feature", "properties": {"pipe_id": "6cd46966-9990-473d-9008-7de4d42ffc30", "material": "PDI", "year": 1975, "status": "No recent data", "data_mode": "Research Data"}, "geometry": {"type": "LineString", "coordinates": [[-113.9863394, 50.9674254], [-113.987026, 50.9674255]]}}, {"type": "Feature", "properties": {"pipe_id": "ca1e304f-f5fe-42ea-b447-67e2d861a786", "material": "PDI", "year": 1975, "status": "No recent data", "data_mode": "Research Data"}, "geometry": {"type": "LineString", "coordinates": [[-113.98948, 50.9674258], [-113.9900988, 50.9674259]]}}, {"type": "Feature", "properties": {"pipe_id": "33d70ad4-8f11-45ff-85e9-96ef4166d0ec", "material": "YDI", "year": 1978, "status": "No recent data", "data_mode": "Research Data"}, "geometry": {"type": "LineString", "coordinates": [[-114.0016177, 50.9734486], [-114.0016188, 50.9768458]]}}, {"type": "Feature", "properties": {"pipe_id": "87617fc0-7f8c-4c36-9d0c-f98589fbb823", "material": "CI", "year": 1950, "status": "No recent data", "data_mode": "Research Data"}, "geometry": {"type": "LineString", "coordinates": [[-114.079869, 51.0616757], [-114.0798687, 51.0612409]]}}, {"type": "Feature", "properties": {"pipe_id": "405574ab-e356-4b29-83e6-755dab09be21", "material": "CI", "year": 1950, "status": "No recent data", "data_mode": "Research Data"}, "geometry": {"type": "LineString", "coordinates": [[-114.0756704, 51.0632087], [-114.0756712, 51.0639225]]}}, {"type": "Feature", "properties": {"pipe_id": "0937debf-6cbd-490e-9f76-6666bacc4776", "material": "CI", "year": 1950, "status": "No recent data", "data_mode": "Research Data"}, "geometry": {"type": "LineString", "coordinates": [[-114.0770696, 51.063109], [-114.0756704, 51.0632087]]}}, {"type": "Feature", "properties": {"pipe_id": "75f0276b-4f96-44ee-81a0-e4db4c93946c", "material": "CI", "year": 1950, "status": "No recent data", "data_mode": "Research Data"}, "geometry": {"type": "LineString", "coordinates": [[-114.079869, 51.0616757], [-114.0784701, 51.062449]]}}, {"type": "Feature", "properties": {"pipe_id": "1985b3c1-c17e-4ca6-b9f7-29a0c8f45ff8", "material": "CI", "year": 1930, "status": "No recent data", "data_mode": "Research Data"}, "geometry": {"type": "LineString", "coordinates": [[-114.0784704, 51.063921], [-114.0784701, 51.062449]]}}, {"type": "Feature", "properties": {"pipe_id": "0d995d17-1810-4968-b5d6-3a98d1e0561c", "material": "PVC", "year": 1991, "status": "No recent data", "data_mode": "Research Data"}, "geometry": {"type": "LineString", "coordinates": [[-114.0919897, 50.9068357], [-114.0920314, 50.9068357]]}}, {"type": "Feature", "properties": {"pipe_id": "81bd5a1e-0483-4987-9aa0-bc250c641ed0", "material": "PVC", "year": 1983, "status": "No recent data", "data_mode": "Research Data"}, "geometry": {"type": "LineString", "coordinates": [[-114.0805163, 50.9072293], [-114.0805173, 50.9068254]]}}, {"type": "Feature", "properties": {"pipe_id": "2eaf2580-2b05-46c5-b3f0-d5d87974d7e5", "material": "PVC", "year": 1981, "status": "No recent data", "data_mode": "Research Data"}, "geometry": {"type": "LineString", "coordinates": [[-114.085533, 50.9171003], [-114.084886, 50.9171]]}}, {"type": "Feature", "properties": {"pipe_id": "b694ad76-c131-43fb-97b0-0bc0582014aa", "material": "PVC", "year": 1980, "status": "No recent data", "data_mode": "Research Data"}, "geometry": {"type": "LineString", "coordinates": [[-114.084886, 50.9171], [-114.0823528, 50.9170988]]}}, {"type": "Feature", "properties": {"pipe_id": "e93c6992-7efe-439c-96fa-ef554fb628fd", "material": "PVC", "year": 1990, "status": "No recent data", "data_mode": "Research Data"}, "geometry": {"type": "LineString", "coordinates": [[-114.0931534, 50.920016], [-114.0931529, 50.9207233]]}}, {"type": "Feature", "properties": {"pipe_id": "159d96b8-0cab-49cd-8af5-50aba1f39040", "material": "PVC", "year": 1990, "status": "No recent data", "data_mode": "Research Data"}, "geometry": {"type": "LineString", "coordinates": [[-114.0918548, 50.9200157], [-114.0918544, 50.9207243]]}}, {"type": "Feature", "properties": {"pipe_id": "88952ad1-2b6a-431f-8b09-0c8fb93617d1", "material": "PVC", "year": 1990, "status": "No recent data", "data_mode": "Research Data"}, "geometry": {"type": "LineString", "coordinates": [[-114.0931534, 50.920016], [-114.0918548, 50.9200157]]}}, {"type": "Feature", "properties": {"pipe_id": "c50efc7d-4851-4f38-b72f-dd2c1312aff6", "material": "PVC", "year": 1990, "status": "No recent data", "data_mode": "Research Data"}, "geometry": {"type": "LineString", "coordinates": [[-114.0918548, 50.9200157], [-114.0905563, 50.9200153]]}}, {"type": "Feature", "properties": {"pipe_id": "2393b6a5-5fde-4904-8ffe-c04382245465", "material": "PVC", "year": 1982, "status": "No recent data", "data_mode": "Research Data"}, "geometry": {"type": "LineString", "coordinates": [[-114.0938681, 50.9155799], [-114.0932394, 50.9155796]]}}, {"type": "Feature", "properties": {"pipe_id": "3995421a-f6fd-4694-bad0-0143623447d7", "material": "PVC", "year": 1982, "status": "No recent data", "data_mode": "Research Data"}, "geometry": {"type": "LineString", "coordinates": [[-114.0938721, 50.9142683], [-114.0938681, 50.9155799]]}}, {"type": "Feature", "properties": {"pipe_id": "b95751ab-100a-4d24-b918-465b3af63b10", "material": "PVC", "year": 1982, "status": "No recent data", "data_mode": "Research Data"}, "geometry": {"type": "LineString", "coordinates": [[-114.0892815, 50.920015], [-114.0892806, 50.9212125]]}}, {"type": "Feature", "properties": {"pipe_id": "b980d857-84ae-48e4-8990-bd4d78751d85", "material": "PVC", "year": 1981, "status": "No recent data", "data_mode": "Research Data"}, "geometry": {"type": "LineString", "coordinates": [[-114.085533, 50.9171003], [-114.0855324, 50.9175595]]}}, {"type": "Feature", "properties": {"pipe_id": "9828399b-76ad-4f81-8e1e-7641acbdaddf", "material": "PVC", "year": 1981, "status": "No recent data", "data_mode": "Research Data"}, "geometry": {"type": "LineString", "coordinates": [[-114.0876161, 50.9174021], [-114.0873098, 50.9178185]]}}, {"type": "Feature", "properties": {"pipe_id": "93aec79e-b173-44ae-b70b-084cf17bc402", "material": "PVC", "year": 1980, "status": "No recent data", "data_mode": "Research Data"}, "geometry": {"type": "LineString", "coordinates": [[-114.0855324, 50.9175595], [-114.0823519, 50.9175568]]}}, {"type": "Feature", "properties": {"pipe_id": "8aeb94f1-1dc1-41fd-84a3-0ccddc27690b", "material": "PVC", "year": 1981, "status": "No recent data", "data_mode": "Research Data"}, "geometry": {"type": "LineString", "coordinates": [[-114.0876161, 50.9174021], [-114.0881567, 50.916667]]}}, {"type": "Feature", "properties": {"pipe_id": "800f36ee-d07c-4fbe-8470-71a07aac08d5", "material": "PVC", "year": 1981, "status": "No recent data", "data_mode": "Research Data"}, "geometry": {"type": "LineString", "coordinates": [[-114.0884621, 50.9142653], [-114.0891691, 50.9142657]]}}, {"type": "Feature", "properties": {"pipe_id": "55281f05-0063-4004-94ef-611f57e41b02", "material": "PVC", "year": 1990, "status": "No recent data", "data_mode": "Research Data"}, "geometry": {"type": "LineString", "coordinates": [[-114.09144, 50.9138086], [-114.0914406, 50.9140917]]}}, {"type": "Feature", "properties": {"pipe_id": "ff17755e-5164-4062-bf37-3fbb89a86197", "material": "PVC", "year": 1981, "status": "No recent data", "data_mode": "Research Data"}, "geometry": {"type": "LineString", "coordinates": [[-114.0874864, 50.9154229], [-114.0874873, 50.9146521]]}}, {"type": "Feature", "properties": {"pipe_id": "ae6ddf36-762c-4029-9d20-42a7c07d3004", "material": "PVC", "year": 1981, "status": "No recent data", "data_mode": "Research Data"}, "geometry": {"type": "LineString", "coordinates": [[-114.0874879, 50.9142647], [-114.0874873, 50.9146521]]}}, {"type": "Feature", "properties": {"pipe_id": "9e62914a-7068-45c6-a4e9-e91b6bd97322", "material": "PVC", "year": 1981, "status": "No recent data", "data_mode": "Research Data"}, "geometry": {"type": "LineString", "coordinates": [[-114.0884621, 50.9142653], [-114.0874879, 50.9142647]]}}, {"type": "Feature", "properties": {"pipe_id": "5a5a3055-dd89-4203-b305-2944086ffc46", "material": "PVC", "year": 1981, "status": "No recent data", "data_mode": "Research Data"}, "geometry": {"type": "LineString", "coordinates": [[-114.0862058, 50.9140887], [-114.0849234, 50.9140879]]}}, {"type": "Feature", "properties": {"pipe_id": "67b447f9-1ef6-4b09-b724-e04873cbff43", "material": "PVC", "year": 1981, "status": "No recent data", "data_mode": "Research Data"}, "geometry": {"type": "LineString", "coordinates": [[-114.0849234, 50.9140879], [-114.083641, 50.9140871]]}}, {"type": "Feature", "properties": {"pipe_id": "a81529eb-e63e-4e76-abe5-2f66de752399", "material": "PVC", "year": 1990, "status": "No recent data", "data_mode": "Research Data"}, "geometry": {"type": "LineString", "coordinates": [[-114.0933909, 50.9133828], [-114.091417, 50.9133817]]}}, {"type": "Feature", "properties": {"pipe_id": "3b9eb7c6-1d43-46f3-8661-161b95bba576", "material": "PVC", "year": 1990, "status": "No recent data", "data_mode": "Research Data"}, "geometry": {"type": "LineString", "coordinates": [[-114.0933915, 50.9125945], [-114.0914514, 50.9124227]]}}, {"type": "Feature", "properties": {"pipe_id": "16d17320-db9d-4a9f-be93-2fc5d4bdfbcf", "material": "PVC", "year": 1990, "status": "No recent data", "data_mode": "Research Data"}, "geometry": {"type": "LineString", "coordinates": [[-114.09144, 50.9138086], [-114.091417, 50.9133817]]}}, {"type": "Feature", "properties": {"pipe_id": "c6b9049b-fa7a-479b-b69f-c587e3fbf86b", "material": "PVC", "year": 1990, "status": "No recent data", "data_mode": "Research Data"}, "geometry": {"type": "LineString", "coordinates": [[-114.0933909, 50.9133828], [-114.0933915, 50.9125945]]}}, {"type": "Feature", "properties": {"pipe_id": "f9ab7e49-222a-4f67-9102-91c52386d6bb", "material": "PVC", "year": 1990, "status": "No recent data", "data_mode": "Research Data"}, "geometry": {"type": "LineString", "coordinates": [[-114.0933903, 50.9140927], [-114.0933909, 50.9133828]]}}, {"type": "Feature", "properties": {"pipe_id": "e46729fb-0089-4aaa-864b-62a89e9e8e5b", "material": "CU", "year": 1990, "status": "No recent data", "data_mode": "Research Data"}, "geometry": {"type": "LineString", "coordinates": [[-114.0933915, 50.9125945], [-114.0933918, 50.9122117]]}}, {"type": "Feature", "properties": {"pipe_id": "2aee3e5b-1f90-4c5e-9220-a80dfbdff9bc", "material": "PVC", "year": 1991, "status": "No recent data", "data_mode": "Research Data"}, "geometry": {"type": "LineString", "coordinates": [[-114.0933072, 50.9113574], [-114.0933079, 50.9104793]]}}, {"type": "Feature", "properties": {"pipe_id": "8bac2548-9ad7-4ec4-be3d-7807e8bdee20", "material": "PVC", "year": 1991, "status": "No recent data", "data_mode": "Research Data"}, "geometry": {"type": "LineString", "coordinates": [[-114.0933072, 50.9113574], [-114.0940248, 50.9114212]]}}, {"type": "Feature", "properties": {"pipe_id": "d9a1d1ee-637b-48d3-aec6-009d74fd5ed2", "material": "PVC", "year": 1989, "status": "No recent data", "data_mode": "Research Data"}, "geometry": {"type": "LineString", "coordinates": [[-114.0873735, 50.9133793], [-114.0874288, 50.9124051]]}}, {"type": "Feature", "properties": {"pipe_id": "dd396020-6a63-4af5-98f1-ba02ffb8f447", "material": "PVC", "year": 1988, "status": "No recent data", "data_mode": "Research Data"}, "geometry": {"type": "LineString", "coordinates": [[-114.0879249, 50.9090797], [-114.0877758, 50.9089585]]}}, {"type": "Feature", "properties": {"pipe_id": "bebdda22-efcd-4017-9725-6c9367d2897c", "material": "PVC", "year": 1980, "status": "No recent data", "data_mode": "Research Data"}, "geometry": {"type": "LineString", "coordinates": [[-114.0811512, 50.9193704], [-114.0823101, 50.9195668]]}}, {"type": "Feature", "properties": {"pipe_id": "8f06b705-a161-4de9-b319-a211abd26929", "material": "PVC", "year": 1981, "status": "No recent data", "data_mode": "Research Data"}, "geometry": {"type": "LineString", "coordinates": [[-114.0840429, 50.911391], [-114.0835859, 50.9115635]]}}, {"type": "Feature", "properties": {"pipe_id": "2980cf54-3877-43e5-a322-d91545ff3ddd", "material": "PVC", "year": 1981, "status": "No recent data", "data_mode": "Research Data"}, "geometry": {"type": "LineString", "coordinates": [[-114.0840429, 50.911391], [-114.0833839, 50.9106932]]}}, {"type": "Feature", "properties": {"pipe_id": "7f54ac7a-53a6-459a-8f43-ebf9297401b1", "material": "PVC", "year": 1981, "status": "No recent data", "data_mode": "Research Data"}, "geometry": {"type": "LineString", "coordinates": [[-114.0834477, 50.9130174], [-114.0847764, 50.9130182]]}}, {"type": "Feature", "properties": {"pipe_id": "0558863a-8b17-40e7-8243-f3019ff3c15a", "material": "PVC", "year": 1980, "status": "No recent data", "data_mode": "Research Data"}, "geometry": {"type": "LineString", "coordinates": [[-114.0778937, 50.9126632], [-114.0786836, 50.9117364]]}}, {"type": "Feature", "properties": {"pipe_id": "3edf96db-3017-43e1-991e-a889f00e9cf9", "material": "PVC", "year": 1980, "status": "No recent data", "data_mode": "Research Data"}, "geometry": {"type": "LineString", "coordinates": [[-114.0778937, 50.9126632], [-114.07897, 50.9130299]]}}, {"type": "Feature", "properties": {"pipe_id": "f5cfea7b-7d15-444d-9bf2-a8fad3c28955", "material": "CI", "year": 1963, "status": "No recent data", "data_mode": "Research Data"}, "geometry": {"type": "LineString", "coordinates": [[-114.1362582, 50.9946045], [-114.1350249, 50.9946062]]}}, {"type": "Feature", "properties": {"pipe_id": "78e6ac8d-43e2-459c-920e-66f2fa03bbc0", "material": "AC", "year": 1961, "status": "No recent data", "data_mode": "Research Data"}, "geometry": {"type": "LineString", "coordinates": [[-114.1290854, 51.0936916], [-114.129032, 51.0936685]]}}, {"type": "Feature", "properties": {"pipe_id": "16269b3f-7eb1-4dd5-98c5-46b20441ddb7", "material": "AC", "year": 1961, "status": "No recent data", "data_mode": "Research Data"}, "geometry": {"type": "LineString", "coordinates": [[-114.1285484, 51.093459], [-114.1292756, 51.0927935]]}}, {"type": "Feature", "properties": {"pipe_id": "abc5d5e9-df97-4bfc-ac48-49427879c16a", "material": "CI", "year": 1963, "status": "No recent data", "data_mode": "Research Data"}, "geometry": {"type": "LineString", "coordinates": [[-114.1185092, 51.0939893], [-114.1181452, 51.0941898]]}}, {"type": "Feature", "properties": {"pipe_id": "d7f59c56-6712-44e9-87aa-2542315a1cae", "material": "CI", "year": 1961, "status": "No recent data", "data_mode": "Research Data"}, "geometry": {"type": "LineString", "coordinates": [[-114.1201416, 51.0951319], [-114.1206935, 51.0951318]]}}, {"type": "Feature", "properties": {"pipe_id": "4833d27b-12ab-4c73-9471-5bf9ffa98b06", "material": "ST", "year": 1961, "status": "No recent data", "data_mode": "Research Data"}, "geometry": {"type": "LineString", "coordinates": [[-114.1245155, 51.0948483], [-114.1210297, 51.0933372]]}}, {"type": "Feature", "properties": {"pipe_id": "25c2ae21-38d8-4d89-a2a6-13d819e7d90a", "material": "CI", "year": 1960, "status": "No recent data", "data_mode": "Research Data"}, "geometry": {"type": "LineString", "coordinates": [[-114.1210297, 51.0933372], [-114.121041, 51.0933269]]}}, {"type": "Feature", "properties": {"pipe_id": "250c14ee-3c50-4103-a89b-24403b164d15", "material": "ST", "year": 1961, "status": "No recent data", "data_mode": "Research Data"}, "geometry": {"type": "LineString", "coordinates": [[-114.1256129, 51.0953237], [-114.1245155, 51.0948483]]}}, {"type": "Feature", "properties": {"pipe_id": "fe0f9c97-993b-4dc0-87b1-e5a24e2168fb", "material": "YDI", "year": 1976, "status": "No recent data", "data_mode": "Research Data"}, "geometry": {"type": "LineString", "coordinates": [[-114.1260239, 51.0949432], [-114.1250023, 51.0945004]]}}, {"type": "Feature", "properties": {"pipe_id": "85dc20e9-2563-4f66-a8f4-c16acec7e2e4", "material": "PVC", "year": 1987, "status": "No recent data", "data_mode": "Research Data"}, "geometry": {"type": "LineString", "coordinates": [[-114.1250023, 51.0945004], [-114.1239769, 51.0940561]]}}, {"type": "Feature", "properties": {"pipe_id": "8bddb7dc-010e-4539-8b02-3aea39e5019d", "material": "YDI", "year": 1976, "status": "No recent data", "data_mode": "Research Data"}, "geometry": {"type": "LineString", "coordinates": [[-114.1279361, 51.0931938], [-114.1260239, 51.0949432]]}}, {"type": "Feature", "properties": {"pipe_id": "dbcd6150-8cd5-4750-b1b0-4a846edece8b", "material": "PVC", "year": 1987, "status": "No recent data", "data_mode": "Research Data"}, "geometry": {"type": "LineString", "coordinates": [[-114.1279361, 51.0931938], [-114.1269138, 51.0927509]]}}, {"type": "Feature", "properties": {"pipe_id": "4ea9e079-b7bf-46b5-ab60-bf3d7c49604e", "material": "PVC", "year": 1987, "status": "No recent data", "data_mode": "Research Data"}, "geometry": {"type": "LineString", "coordinates": [[-114.1269138, 51.0927509], [-114.125889, 51.0923069]]}}, {"type": "Feature", "properties": {"pipe_id": "7da7945d-a218-4bda-a444-260950e634fe", "material": "PVC", "year": 1987, "status": "No recent data", "data_mode": "Research Data"}, "geometry": {"type": "LineString", "coordinates": [[-114.125889, 51.0923069], [-114.1248641, 51.0918629]]}}, {"type": "Feature", "properties": {"pipe_id": "6587de0a-6980-4b58-8f2d-175de0052e9d", "material": "YDI", "year": 1978, "status": "No recent data", "data_mode": "Research Data"}, "geometry": {"type": "LineString", "coordinates": [[-114.1228029, 51.0923667], [-114.123839, 51.0914188]]}}, {"type": "Feature", "properties": {"pipe_id": "e36f2223-628e-4bd1-b9a1-89fb9899883e", "material": "CI", "year": 1959, "status": "No recent data", "data_mode": "Research Data"}, "geometry": {"type": "LineString", "coordinates": [[-114.1215539, 51.090214], [-114.1209247, 51.0900811]]}}, {"type": "Feature", "properties": {"pipe_id": "2b3128fd-bbc1-47fa-8db0-34ce670a56de", "material": "CI", "year": 1960, "status": "No recent data", "data_mode": "Research Data"}, "geometry": {"type": "LineString", "coordinates": [[-114.1199251, 51.0922463], [-114.1181687, 51.0918317]]}}, {"type": "Feature", "properties": {"pipe_id": "33507cc8-588b-4e9b-bb0a-9b07d61cad15", "material": "CI", "year": 1959, "status": "No recent data", "data_mode": "Research Data"}, "geometry": {"type": "LineString", "coordinates": [[-114.1237705, 51.0873715], [-114.1228525, 51.0868415]]}}, {"type": "Feature", "properties": {"pipe_id": "80d697e3-4264-4aaf-a4bb-984603912b79", "material": "CI", "year": 1959, "status": "No recent data", "data_mode": "Research Data"}, "geometry": {"type": "LineString", "coordinates": [[-114.1213733, 51.0878575], [-114.1204563, 51.087328]]}}, {"type": "Feature", "properties": {"pipe_id": "7baea75c-8afb-4cac-a335-6d2124a8ee96", "material": "CI", "year": 1959, "status": "No recent data", "data_mode": "Research Data"}, "geometry": {"type": "LineString", "coordinates": [[-114.1228525, 51.0868415], [-114.1213733, 51.0878575]]}}, {"type": "Feature", "properties": {"pipe_id": "951eaa52-8842-4ba3-83e2-b1c141e40563", "material": "CI", "year": 1960, "status": "No recent data", "data_mode": "Research Data"}, "geometry": {"type": "LineString", "coordinates": [[-114.12126, 51.0859221], [-114.1202093, 51.0853154]]}}, {"type": "Feature", "properties": {"pipe_id": "4688ac82-72b2-4620-9755-91e04ccd9981", "material": "CI", "year": 1960, "status": "No recent data", "data_mode": "Research Data"}, "geometry": {"type": "LineString", "coordinates": [[-114.1215588, 51.0850316], [-114.1210753, 51.0847522]]}}, {"type": "Feature", "properties": {"pipe_id": "1208d506-1094-4542-9eeb-30b9a01376b1", "material": "CI", "year": 1960, "status": "No recent data", "data_mode": "Research Data"}, "geometry": {"type": "LineString", "coordinates": [[-114.1210753, 51.0847522], [-114.1203288, 51.0843209]]}}, {"type": "Feature", "properties": {"pipe_id": "001d03a1-56d6-4e49-93a5-cda37c6f28c9", "material": "CI", "year": 1960, "status": "No recent data", "data_mode": "Research Data"}, "geometry": {"type": "LineString", "coordinates": [[-114.1203288, 51.0843209], [-114.1202987, 51.0843036]]}}, {"type": "Feature", "properties": {"pipe_id": "7e7f085c-a3b3-4e30-bf0a-bd46cbf55a11", "material": "CI", "year": 1959, "status": "No recent data", "data_mode": "Research Data"}, "geometry": {"type": "LineString", "coordinates": [[-114.1209597, 51.0836225], [-114.1218006, 51.0830451]]}}, {"type": "Feature", "properties": {"pipe_id": "ee5ed5eb-76a6-454c-b067-34c896a6068d", "material": "CI", "year": 1959, "status": "No recent data", "data_mode": "Research Data"}, "geometry": {"type": "LineString", "coordinates": [[-114.1206893, 51.0824467], [-114.1209495, 51.0820778]]}}, {"type": "Feature", "properties": {"pipe_id": "c34ff54a-4692-4e2d-80e3-30dd66e8d1a7", "material": "CI", "year": 1959, "status": "No recent data", "data_mode": "Research Data"}, "geometry": {"type": "LineString", "coordinates": [[-114.1232402, 51.0838767], [-114.1226377, 51.0835287]]}}, {"type": "Feature", "properties": {"pipe_id": "4184e9c9-6f67-4086-a6c8-2e4d55d1dd56", "material": "CI", "year": 1959, "status": "No recent data", "data_mode": "Research Data"}, "geometry": {"type": "LineString", "coordinates": [[-114.1242038, 51.0876217], [-114.1237705, 51.0873715]]}}, {"type": "Feature", "properties": {"pipe_id": "908681b8-6955-4930-95e4-6d96f584396c", "material": "CI", "year": 1961, "status": "No recent data", "data_mode": "Research Data"}, "geometry": {"type": "LineString", "coordinates": [[-114.1276965, 51.0920592], [-114.1273924, 51.0923376]]}}, {"type": "Feature", "properties": {"pipe_id": "d05ab0e2-c7ab-4e00-b7d1-cc861c7213db", "material": "CI", "year": 1960, "status": "No recent data", "data_mode": "Research Data"}, "geometry": {"type": "LineString", "coordinates": [[-114.1293129, 51.0927594], [-114.1291327, 51.0926813]]}}, {"type": "Feature", "properties": {"pipe_id": "09519e57-2ee1-40b0-9d97-10cfa84671f2", "material": "CI", "year": 1962, "status": "No recent data", "data_mode": "Research Data"}, "geometry": {"type": "LineString", "coordinates": [[-114.1287029, 51.0924952], [-114.1276965, 51.0920592]]}}, {"type": "Feature", "properties": {"pipe_id": "2e23eb2a-0f5a-49a7-96de-9c1fffc72c40", "material": "PVC", "year": 1986, "status": "No recent data", "data_mode": "Research Data"}, "geometry": {"type": "LineString", "coordinates": [[-114.1299393, 51.091363], [-114.129427, 51.0918321]]}}, {"type": "Feature", "properties": {"pipe_id": "1b7d397e-6070-443e-8dd3-bc0ae3d82269", "material": "PVC", "year": 1986, "status": "No recent data", "data_mode": "Research Data"}, "geometry": {"type": "LineString", "coordinates": [[-114.129427, 51.0918321], [-114.1287029, 51.0924952]]}}, {"type": "Feature", "properties": {"pipe_id": "37e34571-4cc4-4a9d-a721-a491cf710443", "material": "YDI", "year": 1989, "status": "No recent data", "data_mode": "Research Data"}, "geometry": {"type": "LineString", "coordinates": [[-114.1325711, 51.0889556], [-114.1325172, 51.0888807]]}}, {"type": "Feature", "properties": {"pipe_id": "95d9390c-ccad-40a0-a425-5a37704e882a", "material": "PVC", "year": 1987, "status": "No recent data", "data_mode": "Research Data"}, "geometry": {"type": "LineString", "coordinates": [[-114.1301462, 51.094151], [-114.1290854, 51.0936916]]}}, {"type": "Feature", "properties": {"pipe_id": "e68b4025-6e39-4b3b-bbcd-af5003cca54b", "material": "CI", "year": 1961, "status": "No recent data", "data_mode": "Research Data"}, "geometry": {"type": "LineString", "coordinates": [[-114.1313946, 51.0936613], [-114.1306305, 51.0943607]]}}, {"type": "Feature", "properties": {"pipe_id": "7b1dfd6c-4236-44dc-aa3d-d77dd7f8eb2b", "material": "AC", "year": 1961, "status": "No recent data", "data_mode": "Research Data"}, "geometry": {"type": "LineString", "coordinates": [[-114.1298498, 51.092992], [-114.1298721, 51.0930017]]}}, {"type": "Feature", "properties": {"pipe_id": "36bd938d-7716-4bad-aa4b-dc814c65986e", "material": "PVC", "year": 2005, "status": "No recent data", "data_mode": "Research Data"}, "geometry": {"type": "LineString", "coordinates": [[-114.1309114, 51.0934519], [-114.1310354, 51.0935056]]}}, {"type": "Feature", "properties": {"pipe_id": "cb5b8e1d-57ea-4f5a-a3ad-e225b0d59b72", "material": "PVC", "year": 1984, "status": "No recent data", "data_mode": "Research Data"}, "geometry": {"type": "LineString", "coordinates": [[-114.1327678, 51.0918372], [-114.1318754, 51.0912971]]}}, {"type": "Feature", "properties": {"pipe_id": "156c9685-2380-46af-8cc8-bb0c623cc9c9", "material": "CI", "year": 1962, "status": "No recent data", "data_mode": "Research Data"}, "geometry": {"type": "LineString", "coordinates": [[-114.1313946, 51.0936613], [-114.1319364, 51.093896]]}}, {"type": "Feature", "properties": {"pipe_id": "3f9c981a-3a9b-426f-96a3-8a5583cca694", "material": "CI", "year": 1961, "status": "No recent data", "data_mode": "Research Data"}, "geometry": {"type": "LineString", "coordinates": [[-114.1336209, 51.0923534], [-114.1327678, 51.0918372]]}}, {"type": "Feature", "properties": {"pipe_id": "839a8d8d-49af-4cb3-8729-c94a399a95ab", "material": "CI", "year": 1961, "status": "No recent data", "data_mode": "Research Data"}, "geometry": {"type": "LineString", "coordinates": [[-114.1345299, 51.0929035], [-114.1336209, 51.0923534]]}}, {"type": "Feature", "properties": {"pipe_id": "a16c37bf-0260-49f8-93dc-30fe2ff22c35", "material": "AC", "year": 1961, "status": "No recent data", "data_mode": "Research Data"}, "geometry": {"type": "LineString", "coordinates": [[-114.1327373, 51.090732], [-114.1326918, 51.0907619]]}}, {"type": "Feature", "properties": {"pipe_id": "367424cd-6562-42d2-845d-7074825bedc8", "material": "CI", "year": 1961, "status": "No recent data", "data_mode": "Research Data"}, "geometry": {"type": "LineString", "coordinates": [[-114.1341369, 51.0919476], [-114.1344291, 51.0917561]]}}, {"type": "Feature", "properties": {"pipe_id": "9dad153d-9afb-4c24-a7b3-dcdb280e0427", "material": "CI", "year": 1961, "status": "No recent data", "data_mode": "Research Data"}, "geometry": {"type": "LineString", "coordinates": [[-114.1361204, 51.0923988], [-114.1358183, 51.0925968]]}}, {"type": "Feature", "properties": {"pipe_id": "75335a89-19fc-4ac2-8436-7b8aa540dbef", "material": "PDI", "year": 1971, "status": "No recent data", "data_mode": "Research Data"}, "geometry": {"type": "LineString", "coordinates": [[-114.177845, 51.1017387], [-114.1777892, 51.1016811], [-114.1777319, 51.1016242], [-114.177673, 51.1015679], [-114.1776125, 51.1015123], [-114.1775504, 51.1014573], [-114.1774868, 51.1014031], [-114.1774216, 51.1013496], [-114.177355, 51.1012968], [-114.1772868, 51.1012448], [-114.1772172, 51.1011936], [-114.1771462, 51.1011431], [-114.1770737, 51.1010935], [-114.17704, 51.1010712]]}}, {"type": "Feature", "properties": {"pipe_id": "c0c77231-7c69-4557-ac55-693485014efc", "material": "PDI", "year": 1971, "status": "No recent data", "data_mode": "Research Data"}, "geometry": {"type": "LineString", "coordinates": [[-114.1778004, 51.1077395], [-114.1778916, 51.1077041], [-114.1779793, 51.1076654], [-114.1780632, 51.1076235], [-114.1781429, 51.1075785], [-114.1782182, 51.1075306], [-114.1782888, 51.1074799], [-114.1783253, 51.1074511]]}}, {"type": "Feature", "properties": {"pipe_id": "ef8160db-d184-45e6-91e9-523611c18e7d", "material": "PDI", "year": 1972, "status": "No recent data", "data_mode": "Research Data"}, "geometry": {"type": "LineString", "coordinates": [[-114.1863228, 51.1036104], [-114.1836787, 51.1036078]]}}, {"type": "Feature", "properties": {"pipe_id": "0fea6d97-c3a0-47b5-952a-c7fccc4e487e", "material": "PDI", "year": 1972, "status": "No recent data", "data_mode": "Research Data"}, "geometry": {"type": "LineString", "coordinates": [[-114.181991, 51.0995115], [-114.1821877, 51.1003344]]}}, {"type": "Feature", "properties": {"pipe_id": "f210792e-82d7-48ec-a6ac-8b378e4a81ec", "material": "PDI", "year": 1972, "status": "No recent data", "data_mode": "Research Data"}, "geometry": {"type": "LineString", "coordinates": [[-114.1821877, 51.1003344], [-114.1823831, 51.1011516]]}}]}